Name,Physical_address,Postal_address,Email,Phone,url
Angurugu School,"N/A, Angurugu, NT","PO Box 40, Alyangula, Groote Eylandt, 0885, NT",admin.angurcec@ntschools.net,(08) 8987 6355,https://directory.ntschools.net/#/schools/details/angurcec
Alice Springs School Of The Air,"80 Head St, Alice Springs, 0870, NT","PO Box 1220, Alice Springs, 0871, NT",assoa@assoa.nt.edu.au,(08) 8951 6800,https://directory.ntschools.net/#/schools/details/alicesoa
Alice Springs Language Centre,"Milner Road, Alice SPrings, 0870, NT","PO Box 9045, Alice Springs, 0871, NT",alice.language@ntschools.net,(08) 895 52366,https://directory.ntschools.net/#/schools/details/ntsolasp
Alice Springs Juvenile Detention Centre,"Stuart Highway, Alice Springs, 0870, NT","PO Box 4856, ALICE SPRINGS, 0871, NT",joel.hohn@ntschools.net,(08) 8958 5088 / (08) 8958 5089,https://directory.ntschools.net/#/schools/details/aspdcsch
Alekarenge School,"N/A, Ali Curung (Warrabri), NT","LMB 161, via Alice Springs, 0872, NT",admin.alekacec@ntschools.net,(08) 8964 1957,https://directory.ntschools.net/#/schools/details/alekacec
Alcoota School,"N/A, Engawala (Alcoota Stn), NT","PMB 129,, via Alice Springs, 0872, NT",suzanne.stone@ntschools.net,(08) 8956 9977,https://directory.ntschools.net/#/schools/details/alcoosch
Alawa Primary School,"27 Pett Street, Alawa, 0810, NT","PO Box 40446, Casuarina, 0811, NT",alawa.school@ntschools.net,(08) 899 77666,https://directory.ntschools.net/#/schools/details/alawasch
Amoonguna School,"N/A, Amoonguna, NT","PO Box  2529,, Alice Springs, 0871, NT",cherie.gibbens@ntschools.net,(08) 8952 3402,https://directory.ntschools.net/#/schools/details/amoonsch
Adelaide River School,"31 Memorial Tce, Adelaide River, 0846, NT","C/- Post Office, Adelaide River, 0846, NT",adelaideriver.ps@ntschools.net,(08) 8976 7034,https://directory.ntschools.net/#/schools/details/adelasch
Acacia Hill School,"80 Spearwood Rd, Alice Springs, 0870, NT","PO Box 435, ALICE SPRINGS, 0871, NT",acaciahill.school@ntschools.net,(08) 895 52222,https://directory.ntschools.net/#/schools/details/acacisch
Zuccoli Primary School,"130 Zuccoli Parade, Zuccoli, 0830, NT","PO Box 2222, PALMERSTON, 0832, NT",ZuccoliPrimary@ntschools.net,(08) 792 30222,https://directory.ntschools.net/#/schools/details/zuccosch
Yulara School,"21 Winmati St, Yulara, 0872, NT","PO Box 146, Yulara, 0872, NT",yulara.school@ntschools.net,(08) 8956 2014,https://directory.ntschools.net/#/schools/details/yularsch
Yuendumu School,"Conniston Rd, Yuendumu, NT","C/ - Post Office, Yuendumu, 0870, NT",michael.timewell@ntschools.net,(08) 8956 4011,https://directory.ntschools.net/#/schools/details/yuendcec
Yirrkala School,"Rankine Road, Yirrkala, NT","PO Box 896, Nhulunbuy, 0881, NT",admin.yirrkala@ntschools.net,(08) 898 71988,https://directory.ntschools.net/#/schools/details/yirrkcec
Yirara College,"470 South Stuart Highway, Alice Springs, NT","PMB 51, Alice Springs, 0871, NT",info@yirara.nt.edu.au,(08) 8950 5644,https://directory.ntschools.net/#/schools/details/yirarsch
Yirrkala Homeland School,"Galpu Rd, Yirrkala, NT","PMB 747, Nhulunbuy, 0881, NT",yhs.admin@ntschools.net,(08) 898 71224,https://directory.ntschools.net/#/schools/details/yirrkhlc
Alyangula Area School,"Cnr Flinders St & Ayawarra Cr, Alyangula, NT","PMB 3, Alyangula, Groote Eylandt, 0885, NT",alyangula.admin@ntschools.net,(08) 8987 6366,https://directory.ntschools.net/#/schools/details/alyanas
Amanbidji School,"N/A, Amanbidgi (Kildirk), NT","PMB 16, via Katherine, 0851, NT",nicolette.correy@ntschools.net,(08) 9168 7380,https://directory.ntschools.net/#/schools/details/amanbsch
Alyarrmandumanja Umbakumba School,"N/A, Umbakumba, NT","PO Box 698, Alyangula, 0885, NT",admin.umbakumba@ntschools.net,(08) 8987 6793,https://directory.ntschools.net/#/schools/details/umbaksch
Alpurrurulam School,"N/A, Alpurrurulam (Lake Nash), NT","PMB 46, Mt Isa, 4825, QLD",daven.scott@ntschools.net,(07) 4748 4887,https://directory.ntschools.net/#/schools/details/alpursch
Alice Springs Steiner School,"Lot 9523 Ragonesi Rd, Alice Springs, 0870, NT","PO Box 2736, Alice Springs, 0871, NT",accounts@alicesteiner.nt.edu.au,(08) 8953 4578,https://directory.ntschools.net/#/schools/details/alicespringssteinerschool
Ampilatwatja School,"N/A, Ampilatwatja (Ammaroo), NT",", PMB 84, Alice Springs, 0872, NT",geoff.gillman@ntschools.net,(08) 8956 9265,https://directory.ntschools.net/#/schools/details/ampilsch
Yipirinya School,"Lovegrove Dr, Alice Springs, NT","C/- Yipirinya School Council Inc, PO Box 2363, Alice Springs, 0871, NT",yipirinya@yipirinya.com.au,(08) 8952 5633,https://directory.ntschools.net/#/schools/details/yipirsch
Yarralin School,"N/A, Yarralin, NT","PMB 34, via Katherine, 0851, NT",david.oke@ntschools.net,(08) 8975 0809,https://directory.ntschools.net/#/schools/details/yarrasch
Xavier CEC,"Kerinauia Hwy, Nguiu, NT","PMB 139,, via Winnellie, 0822, NT",admin.xcec@nt.catholic.edu.au,(08) 8978 3970,https://directory.ntschools.net/#/schools/details/xaviesch
Wurankuwu Homeland Learning Centre,"Community ID 868, Wurankuwu, NT","Nguiu, Bathurst Island, 0822, NT",tba,(08) 8978 3986,https://directory.ntschools.net/#/schools/details/wuransch
Wulagi Primary School,"24 Brolga St, Wulagi, 0812, NT","24 Brolga St, WULAGI, 0812, NT",wulagi.primary@ntschools.net,(08) 898 37800,https://directory.ntschools.net/#/schools/details/wulagsch
Wugularr School,"Laiwanga St, Wugularr, NT","PMB 6, Katherine, 0851, NT",admin.wugulsch@ntschools.net,(08) 8975 4529,https://directory.ntschools.net/#/schools/details/wugulsch
Woolianna School,"Wooliana Rd, Daly River, NT","PMB 194, Winnellie, 0821, NT",woolianna.school@ntschools.net,(08) 8978 2984 / 0477 333 413,https://directory.ntschools.net/#/schools/details/woolisch
Woolaning School,"Litchfield Park Rd, Litchfield Park, NT","PO Box 3261, Palmerston, 0831, NT",admin.woolasch@ntschools.net,(08) 8978 2334,https://directory.ntschools.net/#/schools/details/woolasch
Woodroffe Primary School,"55 Woodroffe Ave, Woodroffe, 0830, NT","PO Box 2021, PALMERSTON, 0831, NT",woodroffe.ps@ntschools.net,(08) 898 37600,https://directory.ntschools.net/#/schools/details/woodrsch
Willowra School,"N/A, Willowra, NT","PMB 102, via Alice Springs, 0872, NT",willowra.school@ntschools.net,(08) 8956 8408,https://directory.ntschools.net/#/schools/details/willosch
Watiyawanu School,"N/A, Mt Liebig, NT","PMB 111, via Alice Springs, 0872, NT",anthony.smith@ntschools.net,(08) 8956 8555,https://directory.ntschools.net/#/schools/details/watiysch
Watarrka School,"n/a, Lilla Community, NT","Education Stores, Shed 9, 66A Smith St, Alice Springs, 0870, NT",christine.munro@ntschools.net,(08) 8956 7758,https://directory.ntschools.net/#/schools/details/watarsch
Warruwi School,"N/A, Warruwi (Goulburn Island), 0822, NT","PMB 90, via WINNELLIE, 0821, NT",stuart.bramston@ntschools.net,(08) 8979 0222,https://directory.ntschools.net/#/schools/details/warrusch
Wanguri Primary School,"46 Gsell St, Wanguri, 0810, NT","PO Box 40519, CASUARINA, 0811, NT",wanguri.prim@ntschools.net,(08) 8927 1655,https://directory.ntschools.net/#/schools/details/wangusch
Walungurru School,"N/A, Walungurru (Kintore), NT","PMB 14, via Alice Springs, 0872, NT",walungurru.school@ntschools.net,(08)  8964 6056,https://directory.ntschools.net/#/schools/details/walunsch
Wagaman Primary School,"35 Wagaman Tce, Wagaman, 0810, NT","PO Box 40019, CASUARINA, 0811, NT",wagaman.school@ntschools.net,(08) 8922 6011,https://directory.ntschools.net/#/schools/details/wagamsch
Urapunga School,"Blyth St, Rittarangu (Urapunga), NT","PMB 12, via Katherine, 0852, NT",admin.urapunga@ntschools.net,(08) 8975 4645,https://directory.ntschools.net/#/schools/details/urapusch
Top End School of Flexible Learning,"1 Malak Place, Malak, 0812, NT","PO Box 703, Karama, 0812, NT",malakrc.det@ntschools.net,(08) 898 37924,https://directory.ntschools.net/#/schools/details/malrcsch
Tiwi College,"Pickertaramoor Melville Island, , NT","LMB 127, Winnellie, 0822, NT",tiwi.college@ntschools.net,08 89709024,https://directory.ntschools.net/#/schools/details/tiwichs
Tivendale School,"Tivendale Road, Berrimah, 0828, NT","PO Box 703, Karama, 0812, NT",rodney.cremona@ntschools.net,(08) 899 95910,https://directory.ntschools.net/#/schools/details/dondasch
Titjikala School,"N/A, Titjikala (Maryvale), NT","PMB 130, via Alice Springs, 0872, NT",joanne.wickham@ntschools.net,(08) 8956 0927,https://directory.ntschools.net/#/schools/details/titjisch
Timber Creek School,"62 Wilson St, Timber Creek, NT","PMB 115, via Katherine, 0851, NT",timbercreek.admin@ntschools.net,(08) 8975 0714,https://directory.ntschools.net/#/schools/details/timbesch
Tipperary Station School,"Daly River Road, Tipperary, NT","PMB 214, via Winnellie, 0822, NT",rosemary.sullivan@ntschools.net,(08) 8978 2765,https://directory.ntschools.net/#/schools/details/tippesch
Ti Tree School,"26 Palmer St, Ti-Tree, NT","Locked Bag 257,, Ti Tree, via Alice Springs, 0872, NT",kim.omar@ntschools.net,(08) 8956 9743,https://directory.ntschools.net/#/schools/details/titresch
TESTGOVSCHOOL2,"n/a, n/a, NT","n/a, n/a, 0, n/a",n/a,n/a,https://directory.ntschools.net/#/schools/details/TESTGOVSCH2
TESTGOVSCHOOL1,"n/a, n/a, NT","n/a, n/a, 0, n/a",n/a,n/a,https://directory.ntschools.net/#/schools/details/TESTGOVSCH1
Tennant Creek Primary School,"31 Paterson St, Tennant Creek, 0860, NT","PO Box 506, Tennant Creek, 0861, NT",admin.tennasch@ntschools.net,(08) 896 32424,https://directory.ntschools.net/#/schools/details/tennasch
Tennant Creek High School,"38 Stuart St, Tennant Creek, NT","PO Box 546, Tennant Creek, 0861, NT",admin.tchs@ntschools.net,(08) 8962 2102,https://directory.ntschools.net/#/schools/details/tennahs
Taminmin College,"70 Challoner Cct, Humpty Doo, NT","PO Box 21, HUMPTY DOO, 0836, NT",admin.taminmin@ntschools.net,(08) 898 37000,https://directory.ntschools.net/#/schools/details/taminhs
Stuart Park Primary School,"8 Nudl St, Stuart Park, 0820, NT","PO Box 37421, Winnellie, 0831, NT",stuartpark.school@ntschools.net,(08) 899 77333,https://directory.ntschools.net/#/schools/details/stuarsch
Stirling School,"N/A, Wilora (Stirling Station) 0872, NT","Stirling Station, via Alice Springs, 0872, NT",marita.mckenzie@ntschools.net,(08) 8956 9759,https://directory.ntschools.net/#/schools/details/stirlsch
Wallace Rockhole School,"N/A, Wallace Rockhole, NT","PO Box 2256, Alice Springs, 0871, NT",wallace.rockhole@ntschools.net,(08) 8956 7330,https://directory.ntschools.net/#/schools/details/wallasch
St Philip's College,"2 Ulpaya Rd, Alice Springs, NT","PO Box 33, Alice Springs, 0871, NT",info@stphilips.nt.edu.au,(08) 8950 4511,https://directory.ntschools.net/#/schools/details/stphisch
St Pauls Catholic School,"41 Francis St, Rapid Creek, NT","PO Box 40344, Casuarina, 0811, NT",admin.stpauls@nt.catholic.edu.au,(08) 8985 1937,https://directory.ntschools.net/#/schools/details/stpausch
St Joseph's Flexible Learning Centre,"Youth Hub, 3 Wills Terrace, , Alice Springs, 0870, NT","P O Box 2991, Alice Springs, 0871, NT",stjosephsASFLC@youthplus.edu.au,0408 568 357,https://directory.ntschools.net/#/schools/details/stjosephsflexiblelearningcentre
St Mary's Catholic School,"3 Lindsay St, Darwin City, NT","PO Box 2413, Darwin, 0801, NT",admin.stmarys@nt.catholic.edu.au,(08) 8981 9796,https://directory.ntschools.net/#/schools/details/stmarsch
St Joseph's Catholic College,"Maluka Rd, Katherine East, NT","PO Box 535, Katherine, 0850, NT",admin.stjosephs@nt.catholic.edu.au,(08) 89723555,https://directory.ntschools.net/#/schools/details/stjoshs
St Francis Xavier School,"n/a, Nauiyu, NT","PMB 28, Daly River, 0822, NT",dr.adminbox@nt.catholic.edu.au,(08) 8978 2427,https://directory.ntschools.net/#/schools/details/stfrxsch
St Johns Catholic College,"54 Salonika St, The Gardens, NT","Mail Bag 13, Darwin, 0820, NT",admin.stjohns@nt.catholic.edu.au,(08) 8982 2222,https://directory.ntschools.net/#/schools/details/stjohhs
St Francis Assisi School,"56 Challoner Cct, Humpty Doo, NT","PO Box 921, Humpty Doo, 0836, NT",admin.sfas@nt.catholic.edu.au,(08) 8988 1212,https://directory.ntschools.net/#/schools/details/stfrasch
St Andrew Lutheran School,"94 Leanyer Dr, Leanyer, NT","PO Box 1146, Howard Springs, 0831, NT",admin@goodshepherd.nt.edu.au,(08) 8983 0300,https://directory.ntschools.net/#/schools/details/standsch
Shepherdson College,"Wakirana St, Galiwinku, 0822, NT","PMB 74, via WINELLIE, 0822, NT",principal.shepherdson@ntschools.net,(08) 8987 9044,https://directory.ntschools.net/#/schools/details/shephcec
Sattler Christian College,"15 Sattler Cres, Freds Pass, NT","PO Box 1138,, Coolalinga, 0839, NT",admin.scc@ntschools.net,7922 1500,https://directory.ntschools.net/#/schools/details/litchsch
Sanderson Middle School,"60 Matthews Rd, Malak, 0812, NT","PO Box 189, SANDERSON, 0813, NT",sanderson.middle@ntschools.net,(08) 8927 8899,https://directory.ntschools.net/#/schools/details/sandehs
Sacred Heart Primary School,"34 Emery Ave, Woodroffe, NT","PO Box 271, Palmerston, 0831, NT",admin.shps@nt.catholic.edu.au,(08) 8924 8700,https://directory.ntschools.net/#/schools/details/sacresch
Rosebery Primary School,"Belyuen Road Rosebery, Rosebery, 0832, NT","PO Box 650, PALMERSTON, 0832, NT",roseberyps.admin@ntschools.net,(08) 792 30100,https://directory.ntschools.net/#/schools/details/rosebsch
Royal Darwin Hospital School,"Rocklands Drive, Tiwi, Tiwi, 0810, NT","C/o Nakara Primary School, Goodman St, NAKARA, 0810, NT",tania.nicholls@ntschools.net,(08) 8922 8736,https://directory.ntschools.net/#/schools/details/dhospsch
Ross Park Primary School,"7 Winnecke Ave, Alice Springs, 0870, NT","PO Box 364, ALICE SPRINGS, 0871, NT",rosspark.school@ntschools.net,(08) 895 52000,https://directory.ntschools.net/#/schools/details/rosspsch
Rockhampton Downs School,"Community ID 259, Wogyala, NT","PMB 34, Tennant Creek, 0862, NT",nerida.beattie@ntschools.net,(08) 8964 4675,https://directory.ntschools.net/#/schools/details/rockhasch
Robinson River School,"N/A, Robinson River, NT","PMB 145, Katherine, 0851, NT",merryn.curley@ntschools.net,(08) 8975 9956,https://directory.ntschools.net/#/schools/details/robinsch
Ramingining School,"N/A, Ramingining, 0822, NT","PMB 125, via WINNELLIE, 0821, NT",sue.mcavoy@ntschools.net,(08) 8979 7924,https://directory.ntschools.net/#/schools/details/ramincec
Pularumpi School,"Pularumpi, Pirlangimpi, NT","PMB 51, via Winnellie, 0822, NT",ashley.anderson@ntschools.net,(08) 8978 3961,https://directory.ntschools.net/#/schools/details/pularsch
Pine Creek School,"N/A, Pine Creek, 0847, NT","PO Box 196, Pine Creek, 0847, NT",cheryl.glasgow@ntschools.net,(08) 8976 1228,https://directory.ntschools.net/#/schools/details/pinecsch
Pigeon Hole School,"N/A, Pigeon Hole, NT","PMB 10, via Katherine, 0852, NT",anne.pollock@ntschools.net,(08) 8975 0812,https://directory.ntschools.net/#/schools/details/pigeosch
Peppimenarti School,"N/A, Peppimenarti, NT","PMB 49, via Winnellie, 0822, NT",chelsea.collins@ntschools.net,(08) 8978 2455,https://directory.ntschools.net/#/schools/details/peppisch
Parap Primary School,"52 Urquhart Street, Parap, 0820, NT","PO Box 69, PARAP, 0804, NT",parapps.office@ntschools.net,(08) 898 22922,https://directory.ntschools.net/#/schools/details/parapsch
Papunya School,"N/A, Papunya, 0872, NT","PMB 77, via Alice Springs, 0872, NT",papunya.admin@ntschools.net,(08) 8956 8515 or (08) 8956 8323,https://directory.ntschools.net/#/schools/details/papunsch
Palmerston College,"10 Tilston Ave, Driver, 0830, NT","PO Box 8, PALMERSTON, , NT",Palmerston.college@ntschools.net,(08) 899 77999,https://directory.ntschools.net/#/schools/details/palmcsch
Palmerston Christian School,"50 Waler Road, Marlow Lagoon, Marlow Lagoon, NT","PO Box 113, Palmerston, 0831, NT",admin.pcs@ntschools.net,(08) 7922 5600,https://directory.ntschools.net/#/schools/details/palmesch
OLSH Thamarrurr Catholic College,"n/a, Wadeye (Port Keats), NT","Wadeye, Port Keats, via Winnellie, 0822, NT",admin.olshtcs@nt.catholic.edu.au,(08) 8978 2477,https://directory.ntschools.net/#/schools/details/olshpsch
OLSH Primary School,"5 Bath St, Alice Springs, NT","PO Box 2508, Alice Springs, 0871, NT",admin.olshalice@nt.catholic.edu.au,(08) 8950 6400,https://directory.ntschools.net/#/schools/details/olshbsch
OLSH College - Sadadeen Campus,"Sadadeen Rd, Alice Springs, NT","PO Box 2508, Alice Springs, 0871, NT",admin.olshalice@nt.catholic.edu.au,(08) 8950 6400,https://directory.ntschools.net/#/schools/details/olshssch
OLSH College - Traeger Campus,"8 Traeger Ave, Alice Springs, NT","PO Box 2508, Alice Springs, 0871, NT",admin.olshalice@nt.catholic.edu.au,(08) 8950 6400,https://directory.ntschools.net/#/schools/details/olshtsch
O'Loughlin Catholic College,"70 Mueller Rd, Karama, NT","P O Box 41911, Casuarina, 0811, NT",secretary.oloughlin@nt.catholic.edu.au,(08) 8945 1277,https://directory.ntschools.net/#/schools/details/oloughs
Nyirripi School,"N/A, Nyirripi, NT","PMB 125, via Alice Springs, 0872, NT",peter.baldry@ntschools.net,(08) 8956 8880,https://directory.ntschools.net/#/schools/details/nyirrsch
Nyangatjatjara College - Yulara Campus,"N/A, Yulara, NT","PO Box 171, Yulara, 0872, NT",ceo@nyangatjatjaracollege.org.au,(08) 8956 2555,https://directory.ntschools.net/#/schools/details/nyangatjatjaracollegeyularacampus
Nyangatjatjara College - Imanpa Campus,"not available, not available, NT","PO Box 171, Yulara, 0872, NT",ceo@nyangatjatjaracollege.org.au,(08) 8956 7038,https://directory.ntschools.net/#/schools/details/nyangatjatjaracollegeimanpacampus
Numbulwar School,"N/A, Numbulwar, NT","PMB 68, WINELLIE, 0822, NT",cheryl.dwyer@ntschools.net,(08) 8975 4650,https://directory.ntschools.net/#/schools/details/numbusch
Nyangatjatjara College - Docker Rvr Campus,"N/A, Kaltukatjara (Docker River), NT","PO Box 171, Yulara, 0872, NT",ceo@nyangatjatjaracollege.org.au,(08) 8956 7098,https://directory.ntschools.net/#/schools/details/nyandsch
Ntaria School,"N/A, Hermannsburg (Ntaria), NT","PMB 4, via Alice Springs, 0872, NT",ntariasch.admin@ntschools.net,(08) 8956 7424,https://directory.ntschools.net/#/schools/details/ntarisch
NT School of Distance Education,"The Bullocky Point Education Precinct, Atkins Dr, The Gardens, 0820, NT","PO Box 40471, Casuarina, 0811, NT",ntsde.admin@ntschools.net,(08) 892 22292,https://directory.ntschools.net/#/schools/details/ntoec
Nightcliff Primary School,"17 Pandanus St, Nightcliff, 0810, NT","PO BOX 798, NIGHTCLIFF, 0810, NT",nightcliff.ps@ntschools.net,(08) 8948 8488,https://directory.ntschools.net/#/schools/details/nightsch
NT Music School,"60 Matthews Rd, Wulagi 0812, NT","PO Box 455, Sanderson, 0813, NT",nt.musicschool@ntschools.net,(08) 896 35550,https://directory.ntschools.net/#/schools/details/ntmsdrw
Nightcliff Middle School,"90 Aralia St, Rapid Creek, 0810, NT","90 Aralia St, NIGHTCLIFF, 0810, NT",admin.nightms@ntschools.net,(08) 898 37677,https://directory.ntschools.net/#/schools/details/nighths
Nhulunbuy High School,"51 Matthew Flinders Way, Nhulunbuy, 0880, NT","PO Box 1096, NHULUNBUY, 0881, NT",nhulunbuy.high@ntschools.net,(08) 8987 0844,https://directory.ntschools.net/#/schools/details/nhuluhs
Nhulunbuy Christian School,"N/A, Nhulunbuy, NT","PO Box 621, Nhulunbuy, 0881, NT",admin.ncc@ntschools.net,(08) 8965 2900,https://directory.ntschools.net/#/schools/details/nhulucsc
Nhulunbuy Primary School,"60 Chesterfield Cct, Nhulunbuy, 0880, NT","PO Box 321, NHULUNBUY, 0881, NT",nps.frontoffice@ntschools.net,(08) 898 70022,https://directory.ntschools.net/#/schools/details/nhulusch
Ngukurr School,"Bawuda St, Ngukurr, 0852, NT","PMB 138, KATHERINE, 0851, NT",ngukurr.cec@ntschools.net,(08) 8975 4680,https://directory.ntschools.net/#/schools/details/ngukucec
Nganmarriyanga School,"N/A, Palumpa, NT","PMB 85, via WINNELLIE, 0822, NT",tim.webb@ntschools.net,(08) 8978 2380,https://directory.ntschools.net/#/schools/details/nganmsch
Newcastle Waters School,"11 Drovers Dr, Newcastle Waters, NT","Newcastle Waters Station, via Elliott, 0862, NT",emily.hubbert@ntschools.net,(08) 8964 4566,https://directory.ntschools.net/#/schools/details/newcasch
Nganambala School,"n/a, Emu Point, NT","PMB 218, Via Winnellie, 0822, NT",roseanna.brunker@ntschools.net,(08) 8978 2001,https://directory.ntschools.net/#/schools/details/nganasch
Neutral Junction School,"Stuart Hwy, Neutral Junction, NT","Neutral Junction, via Alice Springs, 0872, NT",lance.sharp@ntschools.net,(08) 8956 9754,https://directory.ntschools.net/#/schools/details/neutrsch
Nemarluk School,"30 Styles St, Alawa, 0810, NT","PO Box 39729, WINNELLIE, 0821, NT",admin.nemarluk@ntschools.net,(08) 8985 0400,https://directory.ntschools.net/#/schools/details/nemarsch
Mutitjulu School,"Mutitjulu, Ayers Rock, NT","PO Box 121, Yulara, 0872, NT",mutitjulu.school@ntschools.net,(08) 8956 2547,https://directory.ntschools.net/#/schools/details/mutitsch
Nakara Primary School,"35 Nakara Tce, Nakara, 0810, NT","35 Nakara Tce, Nakara, 0810, NT",nakara.primary@ntschools.net,(08) 8927 9823,https://directory.ntschools.net/#/schools/details/nakarsch
Murrupurtiyanuwu Catholic Primary School,"Kerinauia Highway, Nguiu, NT","PO Box 45, Wurrumiyanga, Bathurst Island, via Winnellie, 0822, NT",admin.mcs@nt.catholic.edu.au,(08) 8978 3986,https://directory.ntschools.net/#/schools/details/murrupurtiyanuwucatholicprimaryschool
Murray Downs School,"Outstation, Murray Downs(Imangara), NT","PMB 48, Alice Springs, 0872, NT",janet.purje@ntschools.net,(08) 8964 1951,https://directory.ntschools.net/#/schools/details/murrasch
Mount Allan School,"N/A, Yuelamu, NT","PMB  6, Mount Allan School via Alice Springs, 0872, NT",phil.bartley@ntschools.net,(08) 8956 8860,https://directory.ntschools.net/#/schools/details/mtallsch
Mulga Bore School,"n/a, Mulga Bore Community, NT","PMB 18, via Alice Springs, 0872, NT",pesala.brown@ntschools.net,(08) 8956 9712,https://directory.ntschools.net/#/schools/details/mulgasch
Moulden Primary School,"103 Bonson Tce, Moulden, 0830, NT","PO Box 80, PALMERSTON, 0831, NT",mouldenps.admin@ntschools.net,(08) 8930 5900,https://directory.ntschools.net/#/schools/details/mouldsch
Mother Teresa Catholic Primary School,"Ginger St, Zuccoli, NT","PO Box 1125, Palmerston, 0830, ",principal.motherteresa@nt.catholic.edu.au,(08) 7969 5600,https://directory.ntschools.net/#/schools/details/mtcpssch
Moil Primary School,"37 Lanyon Tce, Moil, 0810, NT","37 Lanyon Tce, MOIL, 0810, NT",admin.moilsch@ntschools.net,(08) 898 37530,https://directory.ntschools.net/#/schools/details/moilsch
Minyerri School,"N/A, Minyerri (Hodgson Downs), NT","PMB 40, KATHERINE, 0851, NT",jess.robinson@ntschools.net,(08) 8975 9972,https://directory.ntschools.net/#/schools/details/minyesch
Mimik-Ga Centre,"4 Henbury Ave, Wanguri, 0810, NT","PO Box 40519, Casuarina, 0811, NT",admin.mimik-ga@ntschools.net,(08) 898 37900,https://directory.ntschools.net/#/schools/details/eilhsch
Milyakburra School,"N/A, Milyakburra (Bickerton Island), NT","PMB 5, Bickerton Island, via Winnellie, 0822, NT",alessa.fremmer@ntschools.net,(08) 8987 6084,https://directory.ntschools.net/#/schools/details/milyasch
Millner Primary School,"41 Sabine Rd, Millner, 0810, NT","41 Sabine Rd, MILLNER, 0810, NT",admin.millnerps@ntschools.net,(08) 792 30333,https://directory.ntschools.net/#/schools/details/millnsch
Milingimbi School,"N/A, Milingimbi, 0822, NT","PMB 54, Milingimbi, via WINNELLIE, 0822, NT",josie.skelton@ntschools.net,(08) 8987 9902,https://directory.ntschools.net/#/schools/details/milincec
Milkwood Steiner,"107 Boulter Road, Berrimah NT 0828, Marrara, NT","PO Box 319, Karama, 0812, NT",info@milkwood.nt.edu.au,08 8947 0608,https://directory.ntschools.net/#/schools/details/milkwoodsteiner
Milikapiti School,"N/A, Milikapiti (Snake Bay), NT","PMB 96, via Winnellie, 0822, NT",kathryn.leo@ntschools.net,(08) 8978 3960,https://directory.ntschools.net/#/schools/details/miliksch
Middle Point School,"615 Anzac Pde, Middle Point, NT","PO Box 96, Humpty Doo, 0836, NT",middle.pt@ntschools.net,(08) 8988 1688,https://directory.ntschools.net/#/schools/details/middlsch
Mbunghara School,"N/A, Mbunghara, NT","PMB 242, via Alice Springs, 0872, NT",mbunghara.school@ntschools.net,(08) 8956 8503,https://directory.ntschools.net/#/schools/details/mbungsch
Mataranka School,"Roper Terrace, Mataranka, 0852, NT","PO Box 4022, Mataranka, 0852, NT",telka.zotz@ntschools.net,(08) 8975 4543,https://directory.ntschools.net/#/schools/details/matarsch
Marrara Christian School,"110 Amy Johnson Ave, Marrara, NT","PO Box 84, Karama, 0812, NT",admin.mcc@ntschools.net,(08) 8920 2000,https://directory.ntschools.net/#/schools/details/marrahs
Mapuru Yirralka College,"Dhabulu Rd, Mapuru, NT 0822, NT","PMB 301, Winnellie, 0821, NT",linda.miller@ntschools.net,(08) 8970 4996,https://directory.ntschools.net/#/schools/details/mapursch
Manyallaluk School,"N/A, Manyallaluk (Eva Valley), NT","PO Box 271, Katherine, 0851, Nt",admin.manyasch@ntschools.net,(08) 8975 4438,https://directory.ntschools.net/#/schools/details/manyasch
Manunda Terrace Primary School,"31 Manunda Tce, Karama, 0812, NT","31 Manunda Tce, KARAMA, 0812, NT",manunda.school@ntschools.net,(08) 899 77366,https://directory.ntschools.net/#/schools/details/manunsch
Maningrida School,"N/A, Maningrida, 0822, NT","PMB 67, via WINNELLIE, 0822, NT",maningrida.cec@ntschools.net,(08) 8979 5950,https://directory.ntschools.net/#/schools/details/manincec
Mamaruni School,"N/A, Minjilang (Croker Is), NT","PMB 47, via Winnellie, 0822, NT",adam.dicks1@ntschools.net,(08) 8979 0255,https://directory.ntschools.net/#/schools/details/mamarsch
Malak Primary School,"45 Malak Cres, Malak, 0812, NT","45 Malak Crescent, MALAK, 0812, NT",admin.malak@ntschools.net,(08) 899 77600,https://directory.ntschools.net/#/schools/details/malaksch
Mackillop Catholic College,"285 Farrar Boulevard, Johnston, NT","P O Box 2608, Palmerston, 0831, NT",mackillopcollege@nt.catholic.edu.au,08 8930 5757,https://directory.ntschools.net/#/schools/details/mackims
MacFarlane Primary School,"42 Grevillea Rd, Katherine East, 0850, NT","42 Grevillea Road, KATHERINE EAST, 0850, NT",admin.macfasch@ntschools.net,(08) 896 51700,https://directory.ntschools.net/#/schools/details/macfasch
Ludmilla Primary School,"41 Bagot Rd, Ludmilla, 0820, NT","PO Box 39945, WINNELLIE, 0821, NT",admin.ludmilla@ntschools.net,(08) 898 37888,https://directory.ntschools.net/#/schools/details/ludmisch
Ltyentye Apurte CEC,"N/A, Santa Teresa (Ltyenty Apurte), NT","Santa Teresa, PMB 221, via A/Springs, 0871, NT",admin.lace@nt.catholic.edu.au,(08) 8956 0937,https://directory.ntschools.net/#/schools/details/ltyencec
Living Waters Lutheran School,"Cnr Albrecht Dr & Kramer St, Alice Springs, NT","PO Box 8869, Alice Springs, 0871, NT",living.waters@ntschools.net,(08) 8950 0700,https://directory.ntschools.net/#/schools/details/livinsch
Leanyer Primary School,"114 Leanyer Drive,, Leanyer, 0812, NT","114 Leanyer Drive, LEANYER, 0812, NT",admin.leanyer@ntschools.net,(08) 8927 4022,https://directory.ntschools.net/#/schools/details/leanysch
Larrakeyah Primary School,"3 Packard St, Larrakeyah, 0820, NT","PO Box 412, DARWIN, 0801, NT",larrakeyah.admin@ntschools.net,(08) 8981 3211,https://directory.ntschools.net/#/schools/details/larrasch
Larapinta Primary School,"22 Albrecht Dr, Alice Springs, NT","PO Box 9021, ALICE SPRINGS, 0871, NT",larapinta.primary@ntschools.net,(08) 895 85155,https://directory.ntschools.net/#/schools/details/larapsch
Laramba School,"N/A, Laramba (Napperby), NT","PMB 213, via Alice Springs, 0872, NT",laramba.school@ntschools.net,(08) 8956 8771,https://directory.ntschools.net/#/schools/details/laramsch
Lajamanu School,"N/A, Lajamanu ( Hooker Ck), NT","PMB 63, via Katherine, 0851, NT",admin.lajamcec@ntschools.net,(08) 8975 0946,https://directory.ntschools.net/#/schools/details/lajamcec
Kiana School,"N/A, Kiana, NT","PMB 33, via Tennanat Creek, 0861, NT",gordon.halling@ntschools.net,(08) 8975 9820,https://directory.ntschools.net/#/schools/details/kianasch
Kintore Street School,"11 Kintore St, Katherine, 0872, NT","PO Box 1931, KATHERINE, 0851, NT",kintore.admin@ntschools.net,(08) 8973 3888,https://directory.ntschools.net/#/schools/details/kintosch
Katherine South Primary School,"Riverbank Dr, Katherine, 0850, NT","PO Box 721, KATHERINE, 0851, NT",karen.taylor@ntschools.net,(08) 8972 1277,https://directory.ntschools.net/#/schools/details/kathesch
Katherine School Of The Air,"101 Giles St, Katherine, 0850, NT","PO Box 531, KATHERINE, 0851, NT",kath.soa@ntschools.net,(08) 8972 1833,https://directory.ntschools.net/#/schools/details/kathesoa
Katherine High School,"Grevillea Rd, Katherine East, 0850, NT","PO Box 189, KATHERINE, 0851, NT",admin.kathehs@ntschools.net,(08) 8973 8200,https://directory.ntschools.net/#/schools/details/kathehs
Karama Primary School,"37 Livistona Rd, Karama, 0812, NT","PO Box 103, Karama, 0813, NT",karama.school@ntschools.net,(08) 898 37700,https://directory.ntschools.net/#/schools/details/karamsch
Kalkaringi School,"Whitlam st, Kalkaringi (Wave hill), NT","PMB 41, KATHERINE, 0852, NT",kalkaringi.admin@ntschools.net,(08) 896 51888,https://directory.ntschools.net/#/schools/details/kalkacec
Jingili Primary School,"17 Rindberg St, Jingili, 0810, NT","PO Box 40600, CASUARINA, 0810, NT",jingili.school@ntschools.net,(08) 898 37555,https://directory.ntschools.net/#/schools/details/jingisch
Jilkminggan School,"N/A, Jilkminggan (Duck Creek), NT","PO Box 4054, Mataranka, 0852, NT",admin.jilkmsch@ntschools.net,(08) 8975 4896,https://directory.ntschools.net/#/schools/details/jilkmsch
Jabiru Area School,"40 Waterhouse Rd, Jabiru, NT","PO Box  246, Jabiru, 0886, NT",jabiru.areaschool@ntschools.net,(08) 8938 3333,https://directory.ntschools.net/#/schools/details/jabiras
Imanpa School,"N/A, Imanpa, NT","PMB 76, via Alice Springs, 0872, NT",kandi.thorpe@ntschools.net,(08) 8956 7483,https://directory.ntschools.net/#/schools/details/imanpsch
Sadadeen Primary School,"80 Spearwood Rd, Alice Springs, 0870, NT","PO Box 2707, ALICE SPRINGS, 0871, NT",sadadeen.primary@ntschools.net,(08) 895 52299,https://directory.ntschools.net/#/schools/details/sadadsch
Humpty Doo Primary School,"50 Freds Pass Rd, Humpty Doo, 0836, NT","PO Box 46, HUMPTY DOO, 0836, NT",admin.humptydoo@ntschools.net,(08) 8988 1255,https://directory.ntschools.net/#/schools/details/humptsch
Holy Family Catholic School,"Calytrix Road, Karama, NT","PO Box 40870, Casuarina, 0812, NT",admin.holyfamily@nt.catholic.edu.au,(08) 89276188,https://directory.ntschools.net/#/schools/details/holyfsch
Howard Springs Primary School,"295 Whitewood Rd, Howard Springs, 0835, NT","PO Box  171, HOWARD SPRINGS, 0835, NT",howard.springs@ntschools.net,(08) 898 30000,https://directory.ntschools.net/#/schools/details/howarsch
Holy Spirit Catholic School,"Gsell Street, Casuarina, NT","PO Box 40030, Casuarina, 0810, NT",yola.gray@nt.catholic.edu.au,(08) 8927 3411,https://directory.ntschools.net/#/schools/details/holyssch
Henbury School,"11 Henbury Avenue, Tiwi, 0810, NT","11 Henbury Avenue, Tiwi, 0810, NT",henbury.admin@ntschools.net,(08) 899 77077,https://directory.ntschools.net/#/schools/details/henbusch
Harts Range School,"N/A, Atitjere (Harts Range), NT","PMB 162, via Alice Springs, 0871, NT",harts.school@ntschools.net,(08) 8956 9771,https://directory.ntschools.net/#/schools/details/hartssch
Haileybury Rendall School,"6057 Berrimah Road, Berrimah, NT","PO Box 241, Berrimah, 0828, NT",hrs.admin@hrs.edu.au,(08) 8922 1611,https://directory.ntschools.net/#/schools/details/haileyburyrendallschool
Haasts Bluff School,"N/A, Haasts Bluff (Ikuntji), 0872, NT","Haasts Bluff, via Alice Springs, 0872, NT",ian.herben@ntschools.net,(08) 8956 8550,https://directory.ntschools.net/#/schools/details/haastsch
Gunbalanya School,"N/A, Gunbalanya, NT","PMB 66, Gunbalanya, 0822, NT",admin.gunbacec@ntschools.net,(08) 8979 0181,https://directory.ntschools.net/#/schools/details/gunbacec
Good Shepherd Lutheran School,"Cnr Emery Ave and Temple Tce, Palmerston, NT","PO Box 1146, Howard Springs, 0831, NT",admin@goodshepherd.nt.edu.au,(08) 8983 0300,https://directory.ntschools.net/#/schools/details/goodssch
Gray Primary School,"22 Victoria Drive, Gray, 0830, NT","Victoria Drive, GRAY, 0830, NT",admin.graysch@ntschools.net,(08) 8932 1700,https://directory.ntschools.net/#/schools/details/graysch
Good Shepherd Lutheran College,"Cnr Whitewood Rd and Kundook Place, Howard Springs, NT","PO Box 1146, Howard Springs, 0831, NT",admin@goodshepherd.nt.edu.au,08 89830300,https://directory.ntschools.net/#/schools/details/goodsms
Girraween Primary School,"25 Carruth Rd, Girraween, 0835, NT","PO Box 1042, HOWARD SPRINGS, 0835, NT",admin.girrasch@ntschools.net,(08) 8983 3300,https://directory.ntschools.net/#/schools/details/girrasch
Gillen Primary School,"55 Milner Rd, Alice Springs, 0870, NT","PO Box 769, ALICE SPRINGS, 0871, NT",gillen.school@ntschools.net,(08) 895 52155,https://directory.ntschools.net/#/schools/details/gillesch
Gawa Christian School,"Community ID 508, Gawa, NT","PMB 257, Elcho Island via Winnellie, 0822, NT",admin.gcs@ntschools.net,8970 5212,https://directory.ntschools.net/#/schools/details/gawasch
Gapuwiyak School,"N/a, Gapuwiyak, NT","PMB 900, Via Winnellie, 0822, NT",admin.gapuwcec@ntschools.net,(08) 8987 9122,https://directory.ntschools.net/#/schools/details/gapuwcec
Gapuwiyak Pre School,"N/A, Gapuwiyak, NT",", , , ",,(08) 8987 9122,https://directory.ntschools.net/#/schools/details/gapuwiyakpreschool
Forrest Parade School,"120 Flynn Circuit, Bellamack, 0832, NT","120 Flynn Circuit, Bellamack, 0832, NT",admin.forrestps@ntschools.net,(08) 899 77111,https://directory.ntschools.net/#/schools/details/forresch
Finke School,"N/A, Finke, NT","PMB 30, via Alice Springs, 0871, NT",finke.school@ntschools.net,(08) 8956 0960,https://directory.ntschools.net/#/schools/details/finkesch
Family as First Teachers,"Mitchell St, Darwin, 0800, NT","GPO Box 4821, Darwin, 0801, NT",earlychild.det@nt.gov.au,(08) 899 93550,https://directory.ntschools.net/#/schools/details/faftsch
Durack Primary School,"50 Woodlake Bvd, Durack, 0830, NT","PO Box  225, PALMERSTON, 0830, NT",durack.school@ntschools.net,(08) 899 77555,https://directory.ntschools.net/#/schools/details/duracsch
Dundee Beach School,"500 Namarada Dr, Dundee Beach, NT","PMB 193, Winnellie, 0821, NT",dundee.school@ntschools.net,(08) 8978 2212,https://directory.ntschools.net/#/schools/details/dundesch
Driver Primary School,"37 Driver Ave, Driver, 0830, NT","PO Box  33, PALMERSTON, 0831, NT",admin.drivesch@ntschools.net,(08) 8935 9000,https://directory.ntschools.net/#/schools/details/drivesch
Dripstone Middle School,"10 Delamere St, Tiwi, 0810, NT","PO Box  41370, CASUARINA, 0811, NT",dripstone.middle@ntschools.net,(08) 898 37777,https://directory.ntschools.net/#/schools/details/dripshs
Douglas Daly School,"Jungawa Rd, Douglas-Daly, NT","PMB 46, via Winnellie, 0822, NT",janelle.thorne@ntschools.net,(08) 8978 2836,https://directory.ntschools.net/#/schools/details/douglsch
Darwin Middle School,"Atkins Drive, The Gardens, NT 0820, not available, NT","PO Box 2257, PARAP, 0804, NT",admin.darwinmiddle@ntschools.net,(08) 894 25200,https://directory.ntschools.net/#/schools/details/darwims
Darwin Languages Centre,"1 Nemarluk Dr, Ludmilla, NT, NT","P O Box 822, Nightcliff, 0814, NT",dlc.nt@ntschools.net,(08) 899 77000,https://directory.ntschools.net/#/schools/details/ntsoldrw
Darwin High School,"10 Atkins Dr, The Gardens, 0820, NT","Bullocky Point, DARWIN, 0820, NT",darwin.high@ntschools.net,(08) 8999 1222,https://directory.ntschools.net/#/schools/details/darwihs
Clyde Fenton Primary School,"101 Giles St, Katherine, 0850, NT","PO Box 421, KATHERINE, 0851, NT",admin.clydesch@ntschools.net,(08) 897 33844,https://directory.ntschools.net/#/schools/details/clydesch
Centralian Senior College,"10 Grevillea Drive, Alice Springs, 0870, NT","PO Box 4856, ALICE SPRINGS, 0871, NT",admin.centraliansc@ntschools.net,(08) 895 85000,https://directory.ntschools.net/#/schools/details/centrsch
Essington School,"22 Chapman Rd, Rapid Creek, NT","PO Box 42321, Casuarina, 0811, NT",administration@essington.nt.edu.au,(08) 8985 0100,https://directory.ntschools.net/#/schools/details/essinsch
Casuarina Senior College,"61 Parer Dr, Moil, 0810, NT","PO Box  40196, CASUARINA, 0811, NT",csc.admin@ntschools.net,(08) 898 37300,https://directory.ntschools.net/#/schools/details/casuahs
Canteen Creek School,"N/a, Canteen Creek, NT","PMB 105, via Alice Springs, 0872, NT",admin.cantesch@ntschools.net,(08) 8964 1505,https://directory.ntschools.net/#/schools/details/cantesch
Bulman School,"N/A, Bulman, NT","PMB 13, Katherine, 0851, NT",mark.phillips@ntschools.net,(08) 8975 4707,https://directory.ntschools.net/#/schools/details/bulmasch
Bulla Camp School,"N/A, Bulla, NT","PMB 89, Katherine, 0851, NT",jenine.williams@ntschools.net,(08) 9167 8957,https://directory.ntschools.net/#/schools/details/bullasch
Braitling Primary School,"80 Head St, Alice Springs, 0870, NT","PO Box  1669, ALICE SPRINGS, 0871, NT",admin.braitsch@ntschools.net,(08) 895 85111,https://directory.ntschools.net/#/schools/details/braitsch
Borroloola School,"321 Robinson Rd, Borroloola, 0854, NT","PMB 5, Borroloola, 0854, NT",admin.borrosch@ntschools.net,(08) 8975 8780,https://directory.ntschools.net/#/schools/details/borrosch
Bonya School,"Community ID 26, Orrtipa-Thurra (Bonya), NT","PMB 69, via Alice Springs, 0872, NT",mark.webster@ntschools.net,(08) 8956 6352,https://directory.ntschools.net/#/schools/details/bonyahlc
Centralian Middle School,"56 Milner Rd, Alice Springs, 0870, NT","PO Box 1771, ALICE SPRINGS, 0871, NT",centralian.middle@ntschools.net,(08) 895 52333,https://directory.ntschools.net/#/schools/details/centrms
Callistemon House,"80 Callistemon Dr, Katherine East, 0850, NT","PO Box 1971, Katherine East, 0851, NT",admin.callistemon@ntschools.net,(08) 8972 3212,https://directory.ntschools.net/#/schools/details/callisch
Berry Springs Primary School,"1150 Cox Peninsula Rd, Berry Springs, 0838, NT","PO Box 135, Berry Springs, 0838, NT",berrysprings.primary@ntschools.net,(08) 8988 6006,https://directory.ntschools.net/#/schools/details/berrysch
Bees Creek Primary School,"20 Sattler Cres, Freds Pass, NT","PO Box 2271, PALMERSTON, 0831, NT",bees.creek@ntschools.net,(08) 8983 3222,https://directory.ntschools.net/#/schools/details/beescsch
Belyuen School,"N/A, Belyuen, NT","PMB 2, GPO Darwin, 0801, NT",elspeth.hurse@ntschools.net,(08) 8978 5085,https://directory.ntschools.net/#/schools/details/belyusch
Batchelor Area School,"71 Kirra Cres, Batchelor, 0845, NT","c/-, Batchelor Post Office, 0845, NT",batchelor.as@ntschools.net,(08) 8976 0077,https://directory.ntschools.net/#/schools/details/batchas
Barunga School,"N/A, Barunga  (Bamyili), NT","PMB 117, via Katherine, 0851, NT",office.barunga@ntschools.net,(08) 8975 4502,https://directory.ntschools.net/#/schools/details/baruncec
Bradshaw Primary School,"23 Adamson Ave, Alice Springs, 0870, NT","PO Box 1744, ALICE SPRINGS, 0871, NT",bradshaw.school@ntschools.net,(08) 895 52100,https://directory.ntschools.net/#/schools/details/bradssch
Baniyala Garrangali School,"Yilpara Community, Yirrkala, 0880, NT","PO Box 1496, NHULUNBUY, 0881, NT",daniel.ellem@ntschools.net,(08) 8987 9114,https://directory.ntschools.net/#/schools/details/baniysch
Bakewell Primary School,"1 Forrest Parade, Bakewell, 0832, NT","PO Box 1300, PALMERSTON, 0831, NT",admin.bakewell@ntschools.net,(08) 899 77400,https://directory.ntschools.net/#/schools/details/bakewsch
Epenarra School,"N/A, Wutunugurra (Epenarra), NT","PMB 270, via Alice Springs, 0861, NT",jennifer.cadzow@ntschools.net,(08) 8964 1512,https://directory.ntschools.net/#/schools/details/epenasch
Arlparra School,", Arlparra Community, Utopia, NT","PMB 18, via ALICE SPRINGS, 0872, NT",stephen.nimmo@ntschools.net,(08) 8956 9178,https://directory.ntschools.net/#/schools/details/arlpahs
Areyonga School,"wsw of Hermannsburg, 224km from Alice Springs, Areyonga, NT","Areyonga, via Alice Springs, 0872, NT",areyonga.school@ntschools.net,(08) 8956 7303,https://directory.ntschools.net/#/schools/details/areyosch
Araluen Christian School,"10 Blain St, Alice Springs, NT","10 Blain Street, Alice Springs, 0870, NT",admin.acc@ntschools.net,(08) 8955 3300,https://directory.ntschools.net/#/schools/details/aralusch
Anula Primary School,"73 Yanyula Dr, Anula, 0812, NT","Yanyula Drive, ANULA, 0812, NT",anula.admin@ntschools.net,(08) 899 77500,https://directory.ntschools.net/#/schools/details/anulasch
Casuarina Street Primary School,"Casuarina St, Katherine East, 0850, NT","PO Box 1046, KATHERINE, 0851, NT",casuarina.admin@ntschools.net,(08) 897 33800,https://directory.ntschools.net/#/schools/details/casuasch
Elliott School,"91 Bray St, Elliott, NT","C/- Elliott Post Office, Elliott, 0862, NT",kevin.gaskin@ntschools.net,(08) 8969 2050,https://directory.ntschools.net/#/schools/details/elliocec
